[{"bedrooms":4,"bathrooms":1.0,"sqft_living":1680,"sqft_lot":5043,"floors":1.5,"waterfront":0,"view":0,"condition":4,"grade":6,"sqft_above":1680,"sqft_basement":0,"yr_built":1911,"yr_renovated":0,"zipcode":98118,"lat":47.5354,"long":-122.273,"sqft_living15":1560,"sqft_lot15":5765},{"bedrooms":3,"bathrooms":2.5,"sqft_living":2220,"sqft_lot":6380,"floors":1.5,"waterfront":0,"view":0,"condition":4,"grade":8,"sqft_above":1660,"sqft_basement":560,"yr_built":1931,"yr_renovated":0,"zipcode":98115,"lat":47.6974,"long":-122.313,"sqft_living15":950,"sqft_lot15":6380},{"bedrooms":3,"bathrooms":2.25,"sqft_living":1630,"sqft_lot":10962,"floors":1.0,"waterfront":0,"view":0,"condition":4,"grade":8,"sqft_above":1100,"sqft_basement":530,"yr_built":1977,"yr_renovated":0,"zipcode":98030,"lat":47.3801,"long":-122.166,"sqft_living15":1830,"sqft_lot15":8470},{"bedrooms":5,"bathrooms":2.5,"sqft_living":1710,"sqft_lot":9720,"floors":2.0,"waterfront":0,"view":0,"condition":4,"grade":8,"sqft_above":1710,"sqft_basement":0,"yr_built":1974,"yr_renovated":0,"zipcode":98005,"lat":47.5903,"long":-122.157,"sqft_living15":2270,"sqft_lot15":9672},{"bedrooms":2,"bathrooms":1.0,"sqft_living":850,"sqft_lot":6370,"floors":1.0,"waterfront":0,"view":0,"condition":3,"grade":6,"sqft_above":850,"sqft_basement":0,"yr_built":1951,"yr_renovated":0,"zipcode":98126,"lat":47.5198,"long":-122.373,"sqft_living15":850,"sqft_lot15":5170},{"bedrooms":4,"bathrooms":2.75,"sqft_living":2630,"sqft_lot":4501,"floors":2.0,"waterfront":0,"view":0,"condition":3,"grade":8,"sqft_above":2630,"sqft_basement":0,"yr_built":2015,"yr_renovated":0,"zipcode":98028,"lat":47.7748,"long":-122.244,"sqft_living15":2380,"sqft_lot15":4599},{"bedrooms":4,"bathrooms":1.75,"sqft_living":2290,"sqft_lot":7380,"floors":1.0,"waterfront":0,"view":0,"condition":3,"grade":7,"sqft_above":1390,"sqft_basement":900,"yr_built":1963,"yr_renovated":0,"zipcode":98178,"lat":47.5034,"long":-122.245,"sqft_living15":1170,"sqft_lot15":7381},{"bedrooms":4,"bathrooms":2.0,"sqft_living":1730,"sqft_lot":9139,"floors":2.0,"waterfront":0,"view":0,"condition":3,"grade":8,"sqft_above":1730,"sqft_basement":0,"yr_built":1957,"yr_renovated":0,"zipcode":98125,"lat":47.7181,"long":-122.316,"sqft_living15":1410,"sqft_lot15":7311},{"bedrooms":3,"bathrooms":1.75,"sqft_living":2190,"sqft_lot":8500,"floors":1.0,"waterfront":0,"view":0,"condition":4,"grade":9,"sqft_above":2190,"sqft_basement":0,"yr_built":1957,"yr_renovated":0,"zipcode":98112,"lat":47.64,"long":-122.285,"sqft_living15":2850,"sqft_lot15":8868},{"bedrooms":3,"bathrooms":1.75,"sqft_living":1850,"sqft_lot":22767,"floors":1.5,"waterfront":0,"view":4,"condition":5,"grade":6,"sqft_above":1850,"sqft_basement":0,"yr_built":1908,"yr_renovated":0,"zipcode":98074,"lat":47.6144,"long":-122.067,"sqft_living15":2700,"sqft_lot15":17906},{"bedrooms":3,"bathrooms":2.25,"sqft_living":1840,"sqft_lot":11403,"floors":2.0,"waterfront":0,"view":0,"condition":3,"grade":8,"sqft_above":1840,"sqft_basement":0,"yr_built":1993,"yr_renovated":0,"zipcode":98045,"lat":47.4862,"long":-121.797,"sqft_living15":2150,"sqft_lot15":11403},{"bedrooms":4,"bathrooms":2.25,"sqft_living":1780,"sqft_lot":10748,"floors":2.0,"waterfront":0,"view":0,"condition":4,"grade":8,"sqft_above":1780,"sqft_basement":0,"yr_built":1964,"yr_renovated":0,"zipcode":98072,"lat":47.762,"long":-122.11,"sqft_living15":2070,"sqft_lot15":37680},{"bedrooms":4,"bathrooms":2.25,"sqft_living":2680,"sqft_lot":4673,"floors":2.0,"waterfront":0,"view":0,"condition":3,"grade":7,"sqft_above":2680,"sqft_basement":0,"yr_built":1999,"yr_renovated":0,"zipcode":98011,"lat":47.7539,"long":-122.219,"sqft_living15":2460,"sqft_lot15":4645},{"bedrooms":3,"bathrooms":1.5,"sqft_living":1140,"sqft_lot":15890,"floors":1.0,"waterfront":0,"view":0,"condition":3,"grade":7,"sqft_above":840,"sqft_basement":300,"yr_built":1985,"yr_renovated":0,"zipcode":98045,"lat":47.4752,"long":-121.757,"sqft_living15":1200,"sqft_lot15":15247},{"bedrooms":4,"bathrooms":2.5,"sqft_living":3330,"sqft_lot":7399,"floors":2.0,"waterfront":0,"view":0,"condition":3,"grade":9,"sqft_above":3330,"sqft_basement":0,"yr_built":2009,"yr_renovated":0,"zipcode":98052,"lat":47.679,"long":-122.153,"sqft_living15":2640,"sqft_lot15":8601},{"bedrooms":3,"bathrooms":1.5,"sqft_living":1140,"sqft_lot":8500,"floors":1.0,"waterfront":0,"view":0,"condition":4,"grade":7,"sqft_above":1140,"sqft_basement":0,"yr_built":1964,"yr_renovated":0,"zipcode":98022,"lat":47.2093,"long":-122.005,"sqft_living15":1600,"sqft_lot15":8500},{"bedrooms":3,"bathrooms":2.5,"sqft_living":2170,"sqft_lot":8169,"floors":2.0,"waterfront":0,"view":0,"condition":3,"grade":8,"sqft_above":2170,"sqft_basement":0,"yr_built":2003,"yr_renovated":0,"zipcode":98059,"lat":47.4833,"long":-122.139,"sqft_living15":2240,"sqft_lot15":6733},{"bedrooms":3,"bathrooms":2.5,"sqft_living":2350,"sqft_lot":3798,"floors":2.0,"waterfront":0,"view":0,"condition":3,"grade":8,"sqft_above":2350,"sqft_basement":0,"yr_built":2013,"yr_renovated":0,"zipcode":98029,"lat":47.543,"long":-122.01,"sqft_living15":2020,"sqft_lot15":3532},{"bedrooms":3,"bathrooms":1.75,"sqft_living":1560,"sqft_lot":7424,"floors":1.0,"waterfront":0,"view":0,"condition":5,"grade":8,"sqft_above":1560,"sqft_basement":0,"yr_built":1940,"yr_renovated":0,"zipcode":98117,"lat":47.6981,"long":-122.374,"sqft_living15":1370,"sqft_lot15":7424},{"bedrooms":2,"bathrooms":1.0,"sqft_living":920,"sqft_lot":43560,"floors":1.0,"waterfront":0,"view":0,"condition":4,"grade":5,"sqft_above":920,"sqft_basement":0,"yr_built":1923,"yr_renovated":0,"zipcode":98024,"lat":47.5245,"long":-121.931,"sqft_living15":1530,"sqft_lot15":11875},{"bedrooms":3,"bathrooms":2.75,"sqft_living":1560,"sqft_lot":77536,"floors":1.0,"waterfront":0,"view":0,"condition":3,"grade":7,"sqft_above":1400,"sqft_basement":160,"yr_built":1978,"yr_renovated":0,"zipcode":98072,"lat":47.7695,"long":-122.126,"sqft_living15":2210,"sqft_lot15":41449},{"bedrooms":4,"bathrooms":2.5,"sqft_living":2290,"sqft_lot":13416,"floors":2.0,"waterfront":0,"view":0,"condition":4,"grade":9,"sqft_above":2290,"sqft_basement":0,"yr_built":1981,"yr_renovated":0,"zipcode":98007,"lat":47.6194,"long":-122.151,"sqft_living15":2680,"sqft_lot15":13685},{"bedrooms":2,"bathrooms":1.75,"sqft_living":1160,"sqft_lot":6828,"floors":1.0,"waterfront":0,"view":0,"condition":3,"grade":7,"sqft_above":860,"sqft_basement":300,"yr_built":1941,"yr_renovated":0,"zipcode":98115,"lat":47.6937,"long":-122.298,"sqft_living15":1250,"sqft_lot15":6828},{"bedrooms":4,"bathrooms":2.0,"sqft_living":2500,"sqft_lot":36900,"floors":1.0,"waterfront":0,"view":0,"condition":3,"grade":7,"sqft_above":1540,"sqft_basement":960,"yr_built":1972,"yr_renovated":0,"zipcode":98038,"lat":47.3708,"long":-122.049,"sqft_living15":1960,"sqft_lot15":36900},{"bedrooms":3,"bathrooms":2.5,"sqft_living":1750,"sqft_lot":6725,"floors":1.0,"waterfront":0,"view":0,"condition":3,"grade":7,"sqft_above":1330,"sqft_basement":420,"yr_built":1993,"yr_renovated":0,"zipcode":98038,"lat":47.352,"long":-122.058,"sqft_living15":1670,"sqft_lot15":7744},{"bedrooms":4,"bathrooms":1.0,"sqft_living":1900,"sqft_lot":9000,"floors":1.0,"waterfront":0,"view":0,"condition":4,"grade":7,"sqft_above":1290,"sqft_basement":610,"yr_built":1948,"yr_renovated":0,"zipcode":98166,"lat":47.4629,"long":-122.361,"sqft_living15":1950,"sqft_lot15":10800},{"bedrooms":3,"bathrooms":2.5,"sqft_living":2410,"sqft_lot":9916,"floors":2.0,"waterfront":0,"view":0,"condition":4,"grade":10,"sqft_above":2410,"sqft_basement":0,"yr_built":1989,"yr_renovated":0,"zipcode":98052,"lat":47.6911,"long":-122.103,"sqft_living15":2310,"sqft_lot15":8212},{"bedrooms":2,"bathrooms":1.5,"sqft_living":1120,"sqft_lot":1312,"floors":2.0,"waterfront":0,"view":0,"condition":3,"grade":7,"sqft_above":1000,"sqft_basement":120,"yr_built":2004,"yr_renovated":0,"zipcode":98106,"lat":47.534,"long":-122.364,"sqft_living15":1560,"sqft_lot15":1314},{"bedrooms":3,"bathrooms":1.75,"sqft_living":1340,"sqft_lot":16480,"floors":1.0,"waterfront":0,"view":0,"condition":4,"grade":7,"sqft_above":1340,"sqft_basement":0,"yr_built":1968,"yr_renovated":0,"zipcode":98042,"lat":47.364,"long":-122.162,"sqft_living15":1520,"sqft_lot15":10451},{"bedrooms":2,"bathrooms":1.0,"sqft_living":760,"sqft_lot":6380,"floors":1.0,"waterfront":0,"view":0,"condition":3,"grade":6,"sqft_above":760,"sqft_basement":0,"yr_built":1941,"yr_renovated":0,"zipcode":98115,"lat":47.6914,"long":-122.31,"sqft_living15":1590,"sqft_lot15":6380},{"bedrooms":3,"bathrooms":1.5,"sqft_living":1150,"sqft_lot":11475,"floors":1.0,"waterfront":0,"view":0,"condition":3,"grade":7,"sqft_above":1150,"sqft_basement":0,"yr_built":1971,"yr_renovated":0,"zipcode":98045,"lat":47.4629,"long":-121.744,"sqft_living15":1640,"sqft_lot15":11475},{"bedrooms":4,"bathrooms":1.5,"sqft_living":3120,"sqft_lot":7680,"floors":1.0,"waterfront":0,"view":3,"condition":3,"grade":8,"sqft_above":1660,"sqft_basement":1460,"yr_built":1956,"yr_renovated":0,"zipcode":98199,"lat":47.646,"long":-122.39,"sqft_living15":2900,"sqft_lot15":7680},{"bedrooms":4,"bathrooms":2.25,"sqft_living":3490,"sqft_lot":6906,"floors":2.0,"waterfront":0,"view":0,"condition":4,"grade":10,"sqft_above":2280,"sqft_basement":1210,"yr_built":1928,"yr_renovated":0,"zipcode":98199,"lat":47.6424,"long":-122.407,"sqft_living15":2540,"sqft_lot15":6223},{"bedrooms":3,"bathrooms":2.5,"sqft_living":1740,"sqft_lot":4960,"floors":2.0,"waterfront":0,"view":0,"condition":3,"grade":8,"sqft_above":1740,"sqft_basement":0,"yr_built":1992,"yr_renovated":0,"zipcode":98029,"lat":47.5772,"long":-121.998,"sqft_living15":1740,"sqft_lot15":5021},{"bedrooms":3,"bathrooms":2.0,"sqft_living":1660,"sqft_lot":8641,"floors":2.0,"waterfront":0,"view":0,"condition":4,"grade":8,"sqft_above":1660,"sqft_basement":0,"yr_built":1987,"yr_renovated":0,"zipcode":98042,"lat":47.3663,"long":-122.088,"sqft_living15":1490,"sqft_lot15":8641},{"bedrooms":4,"bathrooms":2.5,"sqft_living":2110,"sqft_lot":4178,"floors":2.0,"waterfront":0,"view":0,"condition":3,"grade":7,"sqft_above":2110,"sqft_basement":0,"yr_built":2013,"yr_renovated":0,"zipcode":98042,"lat":47.3612,"long":-122.081,"sqft_living15":2300,"sqft_lot15":4142},{"bedrooms":4,"bathrooms":2.5,"sqft_living":2090,"sqft_lot":5195,"floors":2.0,"waterfront":0,"view":0,"condition":3,"grade":7,"sqft_above":2090,"sqft_basement":0,"yr_built":2007,"yr_renovated":0,"zipcode":98031,"lat":47.3986,"long":-122.166,"sqft_living15":2090,"sqft_lot15":5236},{"bedrooms":4,"bathrooms":2.75,"sqft_living":2330,"sqft_lot":3920,"floors":2.0,"waterfront":0,"view":0,"condition":3,"grade":9,"sqft_above":2330,"sqft_basement":0,"yr_built":2005,"yr_renovated":0,"zipcode":98029,"lat":47.5525,"long":-121.99,"sqft_living15":2410,"sqft_lot15":4063},{"bedrooms":3,"bathrooms":1.0,"sqft_living":880,"sqft_lot":18109,"floors":1.0,"waterfront":0,"view":0,"condition":4,"grade":6,"sqft_above":880,"sqft_basement":0,"yr_built":1970,"yr_renovated":0,"zipcode":98042,"lat":47.3634,"long":-122.101,"sqft_living15":940,"sqft_lot15":11193},{"bedrooms":3,"bathrooms":1.0,"sqft_living":1090,"sqft_lot":7315,"floors":1.0,"waterfront":0,"view":0,"condition":5,"grade":6,"sqft_above":1090,"sqft_basement":0,"yr_built":1981,"yr_renovated":0,"zipcode":98056,"lat":47.494,"long":-122.165,"sqft_living15":1090,"sqft_lot15":5800},{"bedrooms":2,"bathrooms":2.0,"sqft_living":1180,"sqft_lot":3003,"floors":2.0,"waterfront":0,"view":0,"condition":3,"grade":6,"sqft_above":1180,"sqft_basement":0,"yr_built":2005,"yr_renovated":0,"zipcode":98038,"lat":47.3491,"long":-122.02,"sqft_living15":1310,"sqft_lot15":3003},{"bedrooms":4,"bathrooms":2.75,"sqft_living":3100,"sqft_lot":7501,"floors":2.0,"waterfront":0,"view":0,"condition":3,"grade":10,"sqft_above":3100,"sqft_basement":0,"yr_built":1998,"yr_renovated":0,"zipcode":98052,"lat":47.6859,"long":-122.109,"sqft_living15":3140,"sqft_lot15":8672},{"bedrooms":2,"bathrooms":1.0,"sqft_living":1000,"sqft_lot":4950,"floors":1.0,"waterfront":0,"view":0,"condition":3,"grade":7,"sqft_above":800,"sqft_basement":200,"yr_built":1948,"yr_renovated":0,"zipcode":98116,"lat":47.5671,"long":-122.394,"sqft_living15":1060,"sqft_lot15":5500},{"bedrooms":4,"bathrooms":1.75,"sqft_living":1820,"sqft_lot":7381,"floors":1.0,"waterfront":0,"view":0,"condition":5,"grade":7,"sqft_above":1150,"sqft_basement":670,"yr_built":1962,"yr_renovated":0,"zipcode":98058,"lat":47.4567,"long":-122.171,"sqft_living15":1610,"sqft_lot15":8462},{"bedrooms":3,"bathrooms":2.5,"sqft_living":1940,"sqft_lot":8547,"floors":1.0,"waterfront":0,"view":0,"condition":3,"grade":7,"sqft_above":1460,"sqft_basement":480,"yr_built":1989,"yr_renovated":0,"zipcode":98030,"lat":47.3491,"long":-122.177,"sqft_living15":1750,"sqft_lot15":7803},{"bedrooms":2,"bathrooms":1.0,"sqft_living":1200,"sqft_lot":4880,"floors":1.0,"waterfront":0,"view":0,"condition":3,"grade":6,"sqft_above":980,"sqft_basement":220,"yr_built":1943,"yr_renovated":0,"zipcode":98106,"lat":47.5276,"long":-122.346,"sqft_living15":1040,"sqft_lot15":4880},{"bedrooms":4,"bathrooms":2.5,"sqft_living":2150,"sqft_lot":3721,"floors":2.0,"waterfront":0,"view":0,"condition":3,"grade":8,"sqft_above":2150,"sqft_basement":0,"yr_built":2007,"yr_renovated":0,"zipcode":98002,"lat":47.3363,"long":-122.215,"sqft_living15":2150,"sqft_lot15":3721},{"bedrooms":3,"bathrooms":2.5,"sqft_living":2960,"sqft_lot":6856,"floors":2.0,"waterfront":0,"view":0,"condition":3,"grade":10,"sqft_above":2960,"sqft_basement":0,"yr_built":2009,"yr_renovated":0,"zipcode":98074,"lat":47.5906,"long":-122.057,"sqft_living15":3320,"sqft_lot15":6856},{"bedrooms":3,"bathrooms":1.0,"sqft_living":1020,"sqft_lot":13504,"floors":1.0,"waterfront":0,"view":0,"condition":5,"grade":7,"sqft_above":1020,"sqft_basement":0,"yr_built":1959,"yr_renovated":0,"zipcode":98056,"lat":47.5121,"long":-122.17,"sqft_living15":1110,"sqft_lot15":11158},{"bedrooms":3,"bathrooms":2.5,"sqft_living":1740,"sqft_lot":4497,"floors":2.0,"waterfront":0,"view":0,"condition":3,"grade":7,"sqft_above":1740,"sqft_basement":0,"yr_built":2012,"yr_renovated":0,"zipcode":98042,"lat":47.3697,"long":-122.117,"sqft_living15":1950,"sqft_lot15":4486},{"bedrooms":5,"bathrooms":4.0,"sqft_living":4580,"sqft_lot":4443,"floors":3.0,"waterfront":1,"view":4,"condition":3,"grade":10,"sqft_above":4580,"sqft_basement":0,"yr_built":2004,"yr_renovated":0,"zipcode":98075,"lat":47.5682,"long":-122.059,"sqft_living15":2710,"sqft_lot15":4443},{"bedrooms":4,"bathrooms":2.0,"sqft_living":1790,"sqft_lot":14690,"floors":1.0,"waterfront":0,"view":1,"condition":4,"grade":7,"sqft_above":1670,"sqft_basement":120,"yr_built":1960,"yr_renovated":0,"zipcode":98198,"lat":47.3965,"long":-122.321,"sqft_living15":2440,"sqft_lot15":10664},{"bedrooms":3,"bathrooms":2.5,"sqft_living":1600,"sqft_lot":2231,"floors":2.0,"waterfront":0,"view":0,"condition":3,"grade":7,"sqft_above":1600,"sqft_basement":0,"yr_built":2003,"yr_renovated":0,"zipcode":98001,"lat":47.3314,"long":-122.29,"sqft_living15":1600,"sqft_lot15":2962},{"bedrooms":3,"bathrooms":2.5,"sqft_living":1770,"sqft_lot":9450,"floors":1.0,"waterfront":0,"view":0,"condition":3,"grade":8,"sqft_above":1770,"sqft_basement":0,"yr_built":1988,"yr_renovated":0,"zipcode":98001,"lat":47.3196,"long":-122.272,"sqft_living15":2200,"sqft_lot15":8582},{"bedrooms":3,"bathrooms":2.0,"sqft_living":1560,"sqft_lot":4080,"floors":2.0,"waterfront":0,"view":0,"condition":3,"grade":7,"sqft_above":1560,"sqft_basement":0,"yr_built":1923,"yr_renovated":1982,"zipcode":98115,"lat":47.6892,"long":-122.319,"sqft_living15":1900,"sqft_lot15":4080},{"bedrooms":4,"bathrooms":2.5,"sqft_living":2643,"sqft_lot":5750,"floors":2.0,"waterfront":0,"view":0,"condition":3,"grade":8,"sqft_above":2643,"sqft_basement":0,"yr_built":2012,"yr_renovated":0,"zipcode":98030,"lat":47.3519,"long":-122.173,"sqft_living15":2406,"sqft_lot15":5772},{"bedrooms":5,"bathrooms":3.5,"sqft_living":3420,"sqft_lot":6403,"floors":2.0,"waterfront":0,"view":2,"condition":3,"grade":8,"sqft_above":2700,"sqft_basement":720,"yr_built":2013,"yr_renovated":0,"zipcode":98065,"lat":47.5162,"long":-121.874,"sqft_living15":2710,"sqft_lot15":6038},{"bedrooms":3,"bathrooms":1.75,"sqft_living":2280,"sqft_lot":139392,"floors":1.0,"waterfront":0,"view":0,"condition":3,"grade":8,"sqft_above":2280,"sqft_basement":0,"yr_built":1977,"yr_renovated":0,"zipcode":98092,"lat":47.291,"long":-122.118,"sqft_living15":2280,"sqft_lot15":117176},{"bedrooms":5,"bathrooms":2.0,"sqft_living":2400,"sqft_lot":9537,"floors":1.0,"waterfront":0,"view":0,"condition":5,"grade":7,"sqft_above":1210,"sqft_basement":1190,"yr_built":1959,"yr_renovated":0,"zipcode":98056,"lat":47.5112,"long":-122.186,"sqft_living15":1760,"sqft_lot15":9533},{"bedrooms":4,"bathrooms":2.0,"sqft_living":2750,"sqft_lot":5527,"floors":2.0,"waterfront":0,"view":0,"condition":3,"grade":8,"sqft_above":2130,"sqft_basement":620,"yr_built":1901,"yr_renovated":1987,"zipcode":98119,"lat":47.6513,"long":-122.368,"sqft_living15":1290,"sqft_lot15":1764},{"bedrooms":4,"bathrooms":2.5,"sqft_living":2470,"sqft_lot":3811,"floors":2.0,"waterfront":0,"view":0,"condition":3,"grade":8,"sqft_above":2470,"sqft_basement":0,"yr_built":1999,"yr_renovated":0,"zipcode":98065,"lat":47.5362,"long":-121.877,"sqft_living15":2400,"sqft_lot15":4266},{"bedrooms":2,"bathrooms":1.0,"sqft_living":750,"sqft_lot":5120,"floors":1.0,"waterfront":0,"view":0,"condition":4,"grade":6,"sqft_above":750,"sqft_basement":0,"yr_built":1941,"yr_renovated":0,"zipcode":98126,"lat":47.5312,"long":-122.375,"sqft_living15":930,"sqft_lot15":7200},{"bedrooms":4,"bathrooms":2.5,"sqft_living":3210,"sqft_lot":8532,"floors":2.0,"waterfront":0,"view":0,"condition":3,"grade":10,"sqft_above":3210,"sqft_basement":0,"yr_built":1998,"yr_renovated":0,"zipcode":98007,"lat":47.625,"long":-122.144,"sqft_living15":2950,"sqft_lot15":6753},{"bedrooms":3,"bathrooms":1.75,"sqft_living":1430,"sqft_lot":16200,"floors":1.0,"waterfront":0,"view":0,"condition":4,"grade":7,"sqft_above":1430,"sqft_basement":0,"yr_built":1967,"yr_renovated":0,"zipcode":98027,"lat":47.5223,"long":-122.043,"sqft_living15":1690,"sqft_lot15":13125},{"bedrooms":3,"bathrooms":1.5,"sqft_living":1430,"sqft_lot":8960,"floors":1.0,"waterfront":0,"view":0,"condition":4,"grade":6,"sqft_above":1430,"sqft_basement":0,"yr_built":1953,"yr_renovated":0,"zipcode":98166,"lat":47.4759,"long":-122.349,"sqft_living15":1560,"sqft_lot15":10125},{"bedrooms":4,"bathrooms":1.75,"sqft_living":1650,"sqft_lot":7276,"floors":1.0,"waterfront":0,"view":0,"condition":3,"grade":7,"sqft_above":1010,"sqft_basement":640,"yr_built":1977,"yr_renovated":0,"zipcode":98011,"lat":47.7721,"long":-122.206,"sqft_living15":1840,"sqft_lot15":8550},{"bedrooms":3,"bathrooms":2.25,"sqft_living":1670,"sqft_lot":5004,"floors":2.0,"waterfront":0,"view":0,"condition":3,"grade":8,"sqft_above":1670,"sqft_basement":0,"yr_built":1987,"yr_renovated":0,"zipcode":98029,"lat":47.5688,"long":-122.017,"sqft_living15":1850,"sqft_lot15":5276},{"bedrooms":4,"bathrooms":2.5,"sqft_living":2010,"sqft_lot":16020,"floors":1.5,"waterfront":0,"view":0,"condition":5,"grade":8,"sqft_above":2010,"sqft_basement":0,"yr_built":1962,"yr_renovated":0,"zipcode":98059,"lat":47.4821,"long":-122.108,"sqft_living15":1420,"sqft_lot15":16020},{"bedrooms":4,"bathrooms":2.5,"sqft_living":2610,"sqft_lot":7333,"floors":2.0,"waterfront":0,"view":0,"condition":3,"grade":8,"sqft_above":2610,"sqft_basement":0,"yr_built":1988,"yr_renovated":0,"zipcode":98003,"lat":47.2721,"long":-122.293,"sqft_living15":2280,"sqft_lot15":9033},{"bedrooms":4,"bathrooms":2.5,"sqft_living":2030,"sqft_lot":39049,"floors":1.0,"waterfront":0,"view":0,"condition":4,"grade":7,"sqft_above":1530,"sqft_basement":500,"yr_built":1953,"yr_renovated":0,"zipcode":98166,"lat":47.4413,"long":-122.345,"sqft_living15":2400,"sqft_lot15":14605},{"bedrooms":3,"bathrooms":2.5,"sqft_living":1560,"sqft_lot":4800,"floors":2.0,"waterfront":0,"view":0,"condition":4,"grade":7,"sqft_above":1560,"sqft_basement":0,"yr_built":1974,"yr_renovated":0,"zipcode":98001,"lat":47.2653,"long":-122.285,"sqft_living15":1510,"sqft_lot15":12240},{"bedrooms":4,"bathrooms":2.75,"sqft_living":2830,"sqft_lot":10240,"floors":2.0,"waterfront":0,"view":0,"condition":4,"grade":9,"sqft_above":2830,"sqft_basement":0,"yr_built":1998,"yr_renovated":0,"zipcode":98075,"lat":47.5903,"long":-121.986,"sqft_living15":3490,"sqft_lot15":10240},{"bedrooms":3,"bathrooms":2.0,"sqft_living":1470,"sqft_lot":16500,"floors":1.0,"waterfront":0,"view":0,"condition":3,"grade":7,"sqft_above":1470,"sqft_basement":0,"yr_built":1961,"yr_renovated":0,"zipcode":98042,"lat":47.3617,"long":-122.061,"sqft_living15":1720,"sqft_lot15":14406},{"bedrooms":5,"bathrooms":1.5,"sqft_living":2160,"sqft_lot":5000,"floors":1.5,"waterfront":0,"view":2,"condition":4,"grade":8,"sqft_above":2160,"sqft_basement":0,"yr_built":1926,"yr_renovated":0,"zipcode":98107,"lat":47.6645,"long":-122.36,"sqft_living15":1450,"sqft_lot15":4265},{"bedrooms":4,"bathrooms":3.25,"sqft_living":3266,"sqft_lot":5398,"floors":2.0,"waterfront":0,"view":0,"condition":3,"grade":8,"sqft_above":3266,"sqft_basement":0,"yr_built":2014,"yr_renovated":0,"zipcode":98023,"lat":47.2975,"long":-122.35,"sqft_living15":3087,"sqft_lot15":5152},{"bedrooms":4,"bathrooms":4.5,"sqft_living":4060,"sqft_lot":10800,"floors":2.0,"waterfront":0,"view":0,"condition":3,"grade":10,"sqft_above":4060,"sqft_basement":0,"yr_built":2007,"yr_renovated":0,"zipcode":98188,"lat":47.4241,"long":-122.29,"sqft_living15":1830,"sqft_lot15":9768},{"bedrooms":3,"bathrooms":3.25,"sqft_living":1370,"sqft_lot":1194,"floors":3.0,"waterfront":0,"view":0,"condition":3,"grade":8,"sqft_above":1370,"sqft_basement":0,"yr_built":2005,"yr_renovated":0,"zipcode":98107,"lat":47.6704,"long":-122.391,"sqft_living15":1320,"sqft_lot15":1217},{"bedrooms":2,"bathrooms":2.5,"sqft_living":1340,"sqft_lot":1240,"floors":2.0,"waterfront":0,"view":0,"condition":3,"grade":8,"sqft_above":1150,"sqft_basement":190,"yr_built":2008,"yr_renovated":0,"zipcode":98052,"lat":47.6858,"long":-122.102,"sqft_living15":1280,"sqft_lot15":1312},{"bedrooms":3,"bathrooms":1.75,"sqft_living":1690,"sqft_lot":8489,"floors":1.0,"waterfront":0,"view":0,"condition":4,"grade":7,"sqft_above":1690,"sqft_basement":0,"yr_built":1959,"yr_renovated":0,"zipcode":98004,"lat":47.6079,"long":-122.192,"sqft_living15":1850,"sqft_lot15":8536},{"bedrooms":3,"bathrooms":2.25,"sqft_living":1840,"sqft_lot":6750,"floors":1.0,"waterfront":0,"view":0,"condition":4,"grade":7,"sqft_above":1270,"sqft_basement":570,"yr_built":1980,"yr_renovated":0,"zipcode":98031,"lat":47.4075,"long":-122.172,"sqft_living15":1750,"sqft_lot15":7004},{"bedrooms":4,"bathrooms":2.5,"sqft_living":2590,"sqft_lot":8571,"floors":2.0,"waterfront":0,"view":0,"condition":3,"grade":9,"sqft_above":2590,"sqft_basement":0,"yr_built":1988,"yr_renovated":0,"zipcode":98052,"lat":47.691,"long":-122.105,"sqft_living15":2360,"sqft_lot15":8155},{"bedrooms":3,"bathrooms":1.75,"sqft_living":1800,"sqft_lot":5816,"floors":1.0,"waterfront":0,"view":0,"condition":5,"grade":7,"sqft_above":900,"sqft_basement":900,"yr_built":1947,"yr_renovated":0,"zipcode":98199,"lat":47.6529,"long":-122.407,"sqft_living15":1650,"sqft_lot15":5816},{"bedrooms":3,"bathrooms":1.0,"sqft_living":1450,"sqft_lot":6776,"floors":1.0,"waterfront":0,"view":0,"condition":3,"grade":7,"sqft_above":1450,"sqft_basement":0,"yr_built":1952,"yr_renovated":0,"zipcode":98178,"lat":47.5056,"long":-122.244,"sqft_living15":1680,"sqft_lot15":7200},{"bedrooms":4,"bathrooms":2.25,"sqft_living":2810,"sqft_lot":25990,"floors":2.0,"waterfront":0,"view":0,"condition":3,"grade":8,"sqft_above":1860,"sqft_basement":950,"yr_built":1959,"yr_renovated":0,"zipcode":98001,"lat":47.2993,"long":-122.293,"sqft_living15":2020,"sqft_lot15":16140},{"bedrooms":5,"bathrooms":2.75,"sqft_living":2710,"sqft_lot":4685,"floors":2.0,"waterfront":0,"view":0,"condition":3,"grade":8,"sqft_above":2710,"sqft_basement":0,"yr_built":2014,"yr_renovated":0,"zipcode":98038,"lat":47.3555,"long":-122.062,"sqft_living15":2710,"sqft_lot15":4449},{"bedrooms":6,"bathrooms":3.75,"sqft_living":4210,"sqft_lot":6105,"floors":2.0,"waterfront":0,"view":0,"condition":3,"grade":9,"sqft_above":3280,"sqft_basement":930,"yr_built":2008,"yr_renovated":0,"zipcode":98059,"lat":47.5211,"long":-122.157,"sqft_living15":3820,"sqft_lot15":6368},{"bedrooms":2,"bathrooms":1.0,"sqft_living":1088,"sqft_lot":8453,"floors":1.0,"waterfront":0,"view":0,"condition":3,"grade":6,"sqft_above":1088,"sqft_basement":0,"yr_built":1952,"yr_renovated":2009,"zipcode":98001,"lat":47.2685,"long":-122.231,"sqft_living15":1088,"sqft_lot15":8016},{"bedrooms":4,"bathrooms":3.0,"sqft_living":2620,"sqft_lot":214750,"floors":2.0,"waterfront":0,"view":0,"condition":3,"grade":8,"sqft_above":2620,"sqft_basement":0,"yr_built":1992,"yr_renovated":0,"zipcode":98058,"lat":47.4239,"long":-122.068,"sqft_living15":2060,"sqft_lot15":212137},{"bedrooms":4,"bathrooms":2.5,"sqft_living":2440,"sqft_lot":6733,"floors":2.0,"waterfront":0,"view":0,"condition":3,"grade":9,"sqft_above":2440,"sqft_basement":0,"yr_built":1999,"yr_renovated":0,"zipcode":98074,"lat":47.6374,"long":-122.064,"sqft_living15":2570,"sqft_lot15":6496},{"bedrooms":2,"bathrooms":1.0,"sqft_living":1120,"sqft_lot":5329,"floors":1.0,"waterfront":0,"view":1,"condition":3,"grade":6,"sqft_above":750,"sqft_basement":370,"yr_built":1929,"yr_renovated":0,"zipcode":98126,"lat":47.5421,"long":-122.378,"sqft_living15":1530,"sqft_lot15":5330},{"bedrooms":3,"bathrooms":1.75,"sqft_living":1340,"sqft_lot":7210,"floors":1.0,"waterfront":0,"view":0,"condition":4,"grade":7,"sqft_above":1340,"sqft_basement":0,"yr_built":1975,"yr_renovated":0,"zipcode":98031,"lat":47.4182,"long":-122.167,"sqft_living15":1370,"sqft_lot15":7210},{"bedrooms":3,"bathrooms":2.0,"sqft_living":1860,"sqft_lot":3600,"floors":1.5,"waterfront":0,"view":0,"condition":3,"grade":7,"sqft_above":1110,"sqft_basement":750,"yr_built":1915,"yr_renovated":0,"zipcode":98122,"lat":47.6102,"long":-122.296,"sqft_living15":1680,"sqft_lot15":3695},{"bedrooms":4,"bathrooms":1.75,"sqft_living":2080,"sqft_lot":8750,"floors":1.0,"waterfront":0,"view":0,"condition":4,"grade":8,"sqft_above":1330,"sqft_basement":750,"yr_built":1967,"yr_renovated":0,"zipcode":98032,"lat":47.3749,"long":-122.291,"sqft_living15":1790,"sqft_lot15":8750},{"bedrooms":3,"bathrooms":2.0,"sqft_living":1250,"sqft_lot":1306,"floors":3.0,"waterfront":0,"view":0,"condition":3,"grade":7,"sqft_above":1250,"sqft_basement":0,"yr_built":2000,"yr_renovated":0,"zipcode":98107,"lat":47.6705,"long":-122.39,"sqft_living15":1320,"sqft_lot15":1306},{"bedrooms":4,"bathrooms":3.0,"sqft_living":3580,"sqft_lot":35261,"floors":1.5,"waterfront":0,"view":0,"condition":3,"grade":10,"sqft_above":3580,"sqft_basement":0,"yr_built":1985,"yr_renovated":0,"zipcode":98072,"lat":47.7577,"long":-122.134,"sqft_living15":3540,"sqft_lot15":36750},{"bedrooms":3,"bathrooms":2.5,"sqft_living":2430,"sqft_lot":54059,"floors":2.0,"waterfront":0,"view":0,"condition":3,"grade":10,"sqft_above":2430,"sqft_basement":0,"yr_built":1987,"yr_renovated":0,"zipcode":98027,"lat":47.4664,"long":-121.992,"sqft_living15":2910,"sqft_lot15":49658},{"bedrooms":2,"bathrooms":2.5,"sqft_living":1240,"sqft_lot":1249,"floors":3.0,"waterfront":0,"view":0,"condition":3,"grade":8,"sqft_above":1240,"sqft_basement":0,"yr_built":2006,"yr_renovated":0,"zipcode":98107,"lat":47.6718,"long":-122.386,"sqft_living15":1240,"sqft_lot15":2500},{"bedrooms":4,"bathrooms":1.75,"sqft_living":1860,"sqft_lot":9750,"floors":1.0,"waterfront":0,"view":0,"condition":3,"grade":7,"sqft_above":1460,"sqft_basement":400,"yr_built":1969,"yr_renovated":0,"zipcode":98034,"lat":47.7097,"long":-122.202,"sqft_living15":1900,"sqft_lot15":8913},{"bedrooms":5,"bathrooms":1.75,"sqft_living":2330,"sqft_lot":3800,"floors":1.5,"waterfront":0,"view":0,"condition":3,"grade":7,"sqft_above":1360,"sqft_basement":970,"yr_built":1927,"yr_renovated":0,"zipcode":98115,"lat":47.6835,"long":-122.308,"sqft_living15":2100,"sqft_lot15":3800},{"bedrooms":4,"bathrooms":2.5,"sqft_living":2550,"sqft_lot":4630,"floors":2.0,"waterfront":0,"view":0,"condition":3,"grade":7,"sqft_above":2550,"sqft_basement":0,"yr_built":2005,"yr_renovated":0,"zipcode":98075,"lat":47.5928,"long":-122.004,"sqft_living15":2550,"sqft_lot15":5151}]